179P/Jedicke,e,19.8983,115.5221,296.7663,5.935915,0.0681511,0.30611454,334.0856,05/14.0/2021,2000,g  2.5,8.0
# From MPC100284
180P/NEAT,e,16.8663,84.5667,94.8121,3.862895,0.1298179,0.35305984,257.4812,05/14.0/2021,2000,g 11.0,4.0
# From MPC 89012
181P/Shoemaker-Levy,e,17.4864,35.4113,336.2421,3.872598,0.1293304,0.70054405,328.9904,05/14.0/2021,2000,g 11.5,4.0
# From MPEC 2014-J10
182P/LONEOS,e,16.2231,72.5204,54.1128,2.952894,0.1942372,0.66303210,289.4407,05/14.0/2021,2000,g 18.0,4.0
# From MPC110085
183P/Korlevic-Juric,e,18.7654,4.6378,166.0560,4.538316,0.1019441,0.13685888,128.1807,05/14.0/2021,2000,g 12.5,2.0
# From MPEC 2020-W26
184P/Lovas,e,4.5732,173.2528,186.4507,3.793417,0.1334007,0.55096616,26.6523,05/14.0/2021,2000,g 13.5,4.0
# From MPC109593
185P/Petriew,e,14.0057,214.0980,181.8746,3.098953,0.1806681,0.69922231,217.2421,05/14.0/2021,2000,g 15.0,4.0
# From MPEC 2020-W26
186P/Garradd,e,28.8461,326.6349,278.9510,4.955105,0.0893562,0.12183190,70.1296,05/14.0/2021,2000,g  7.5,4.0
# From MPEC 2020-SI8
187P/LINEAR,e,13.6343,109.9197,131.8846,4.569850,0.1008907,0.15210355,110.4176,05/14.0/2021,2000,g  9.0,4.0
# From MPC106349
188P/LINEAR-Mueller,e,10.5241,358.9611,26.5642,4.374351,0.1077292,0.41580561,166.5807,05/14.0/2021,2000,g 11.5,4.0
# From MPC106349
189P/NEAT,e,20.0703,281.7328,16.2851,2.946689,0.1948509,0.58875685,268.0716,05/14.0/2021,2000,g 19.0,4.0
# From MPEC 2020-K19
190P/Mueller,e,2.1743,335.5787,50.2772,4.234214,0.1131214,0.52135838,210.6096,05/14.0/2021,2000,g 13.0,4.0
# From MPEC 2021-BE3
191P/McNaught,e,8.8428,98.2321,284.0095,3.634111,0.1422679,0.38577312,7.8084,05/14.0/2021,2000,g 13.0,4.0
# From MPC 75724
192P/Shoemaker-Levy,e,24.5557,51.6232,312.9582,6.476525,0.0597986,0.77319049,293.8326,05/14.0/2021,2000,g 15.0,4.0
# From MPC 92277
193P/LINEAR-NEAT,e,10.6881,335.1756,8.1415,3.579680,0.1455251,0.39438302,344.9565,05/14.0/2021,2000,g 14.0,4.0
# From MPC 98566
194P/LINEAR,e,11.3842,350.8526,131.2925,3.981852,0.1240442,0.58227851,236.0983,05/14.0/2021,2000,g 16.0,4.0
# From MPC 75724
195P/Hill,e,36.3354,243.1184,249.3308,6.502597,0.0594393,0.31332378,268.6652,05/14.0/2021,2000,g  8.5,4.0
# From MPC 92985
196P/Tichy,e,19.2935,24.1710,12.2303,3.801204,0.1329910,0.42853649,288.9944,05/14.0/2021,2000,g 13.5,4.0
# From MPC 94676
197P/LINEAR,e,25.5362,66.3851,188.7476,2.867691,0.2029577,0.62962209,243.7824,05/14.0/2021,2000,g 16.5,2.0
# From NK 1596
198P/ODAS,e,1.3387,358.2530,69.2000,3.598946,0.1443581,0.44335304,127.3556,05/14.0/2021,2000,g  9.0,4.0
# From MPC 75725
199P/Shoemaker,e,24.9325,92.3832,191.6592,5.893909,0.0688809,0.50602993,303.8032,05/14.0/2021,2000,g 10.0,4.0
# From MPEC 2021-F20
200P/Larsen,e,12.1008,234.7927,134.0839,4.940835,0.0897436,0.33254048,58.7709,05/14.0/2021,2000,g  9.0,4.0
# From MPC 93588
201P/LONEOS,e,5.7390,19.7492,41.5430,3.353454,0.1604965,0.63697915,357.9659,05/14.0/2021,2000,g 14.0,4.0
# From MPC103849
202P/Scotti,e,2.0719,178.4420,277.3468,4.048618,0.1209884,0.26886591,226.3195,05/14.0/2021,2000,g 13.5,4.0
# From MPEC 2021-F20
203P/Korlevic,e,2.9730,290.3447,154.8188,4.671170,0.0976260,0.31514088,42.4899,05/14.0/2021,2000,g 12.7,4.0
# From MPC 98566
204P/LINEAR-NEAT,e,6.6086,108.6698,356.0148,3.598222,0.1444016,0.48799265,280.4259,05/14.0/2021,2000,g 14.0,4.0
# From MPC 98566
205P/Giacobini,e,15.3045,179.6050,154.2096,3.542206,0.1478404,0.56802288,323.8621,05/14.0/2021,2000,g 13.0,4.0
# From MPC 75725
206P/Barnard-Boattini,e,33.6335,202.3465,189.4719,3.487463,0.1513351,0.55132164,10.6695,05/14.0/2021,2000,g 19.0,4.0
# From MPC 75725
207P/NEAT,e,10.1772,198.5236,272.8691,3.869060,0.1295078,0.75956919,231.3956,05/14.0/2021,2000,g 16.0,4.0
# From MPEC 2020-W26
208P/McMillan,e,4.4105,36.3478,310.4447,4.045624,0.1211228,0.37378769,214.9757,05/14.0/2021,2000,g 12.5,4.0
# From MPC 90771
209P/LINEAR,e,21.2565,62.7721,152.4689,2.960002,0.1935379,0.67308472,135.7496,05/14.0/2021,2000,g 17.0,2.0
# From MPC105242
210P/Christensen,e,10.2624,93.8321,345.8991,3.164501,0.1750839,0.83319616,70.2259,05/14.0/2021,2000,g 13.5,4.0
# From MPC 96868
211P/Hill,e,18.9214,117.1361,4.2330,3.546419,0.1475771,0.34332941,284.9444,05/14.0/2021,2000,g 12.5,4.0
# From MPEC 2021-F20
212P/NEAT,e,22.2893,98.3723,14.0858,3.886155,0.1286542,0.58859942,221.3762,05/14.0/2021,2000,g 17.0,2.0
# From MPC114608
213P/Van Ness,e,10.3826,311.2997,5.6397,3.347830,0.1609011,0.40823293,213.4084,05/14.0/2021,2000,g 10.5,4.0
# From MPC 92986
214P/LINEAR,e,15.1837,348.2522,190.2428,3.617597,0.1432431,0.48579981,288.3298,05/14.0/2021,2000,g 13.0,4.0
# From MPC100284
216P/LINEAR,e,9.0583,359.8092,151.3485,3.868524,0.1295347,0.44643539,234.4961,05/14.0/2021,2000,g 13.0,4.0
# From MPC108598
217P/LINEAR,e,12.8644,125.4782,246.8441,3.950761,0.1255114,0.68872122,175.2804,05/14.0/2021,2000,g 12.0,4.0
# From MPEC 2020-K19
218P/LINEAR,e,2.7264,175.9651,59.7756,3.094134,0.1810904,0.62202366,40.2417,05/14.0/2021,2000,g 16.0,4.0
# From MPC100284
219P/LINEAR,e,11.5317,230.9725,107.4222,3.649782,0.1413525,0.35392075,217.8902,05/14.0/2021,2000,g 11.0,4.0
# From MPEC 2021-BE3
220P/McNaught,e,8.1288,150.1026,180.5292,3.115498,0.1792309,0.50172342,27.6693,05/14.0/2021,2000,g 15.0,4.0
# From MPEC 2021-J28
221P/LINEAR,e,11.4269,229.7046,40.0978,3.456270,0.1533884,0.49273032,326.5555,05/14.0/2021,2000,g 14.5,4.0
# From MPC 92277
222P/LINEAR,e,5.0970,6.7814,346.2438,2.899371,0.1996404,0.71461418,141.4897,05/14.0/2021,2000,g 20.0,4.0
# From MPEC 2021-F20
223P/Skiff,e,27.0235,346.7705,37.8165,4.159131,0.1161984,0.41595742,97.3164,05/14.0/2021,2000,g 14.5,4.0
# From MPC 75727
224P/LINEAR-NEAT,e,13.2993,40.1946,16.6994,3.443729,0.1542271,0.40720874,282.2671,05/14.0/2021,2000,g 15.5,4.0
# From MPC 75727
225P/LINEAR,e,21.3599,14.1921,3.8681,3.650185,0.1413292,0.63803428,244.6374,05/14.0/2021,2000,g 18.0,4.0
# From MPC106349
226P/Pigott-LINEAR-Kowalski,e,44.0215,54.0021,341.0397,3.767454,0.1347821,0.52847529,230.9305,05/14.0/2021,2000,g 12.5,4.0
# From MPC102956
227P/Catalina-LINEAR,e,6.5192,48.2768,91.1785,3.556129,0.1469731,0.51181374,207.9549,05/14.0/2021,2000,g 16.5,2.0
# From MPEC 2020-L06
228P/LINEAR,e,7.9115,30.9800,115.1850,4.171180,0.1156953,0.17640424,49.7592,05/14.0/2021,2000,g 14.5,2.0
# From MPC106349
229P/Gibbs,e,26.0911,157.9079,223.9639,3.929872,0.1265134,0.37705131,183.8971,05/14.0/2021,2000,g 13.0,4.0
# From MPC110497
230P/LINEAR,e,15.4797,107.0132,313.3930,3.454787,0.1534872,0.54609749,312.5409,05/14.0/2021,2000,g 13.0,4.0
# From MPEC 2020-K19
231P/LINEAR-NEAT,e,12.3366,133.0122,43.3534,4.026651,0.1219798,0.24748846,85.0634,05/14.0/2021,2000,g 14.5,2.0
# From MPC112394
232P/Hill,e,14.6341,56.0155,53.4067,4.479853,0.1039462,0.33416960,79.9504,05/14.0/2021,2000,g 11.5,4.0
# From MPEC 2021-J28
233P/La Sagra,e,11.2837,74.9225,27.0439,3.030589,0.1868158,0.41182209,41.9144,05/14.0/2021,2000,g 15.0,4.0
# From MPC110497
234P/LINEAR,e,11.5307,179.5635,357.2624,3.800746,0.1330151,0.25473378,192.3324,05/14.0/2021,2000,g 12.0,4.0
# From MPC110497
235P/LINEAR,e,8.9319,203.4333,333.3714,3.967231,0.1247306,0.32293777,143.8989,05/14.0/2021,2000,g 12.0,4.0
# From MPC107688
236P/LINEAR,e,16.3367,245.6250,119.2265,3.730268,0.1368025,0.50889071,173.7317,05/14.0/2021,2000,g 14.0,4.0
# From MPC109593
237P/LINEAR,e,14.0165,245.3958,25.2139,3.512451,0.1497231,0.43452291,250.6369,05/14.0/2021,2000,g 14.5,2.0
# From MPC107688
238P/Read,e,1.2642,51.6362,324.5328,3.165725,0.1749823,0.25228058,292.0244,05/14.0/2021,2000,g 14.5,4.0
# From MPEC 2021-F20
239P/LINEAR,e,11.2972,255.9135,220.4480,4.470664,0.1042668,0.63013404,89.1895,05/14.0/2021,2000,g 17.5,2.0
# From MPEC 2021-F20
240P/NEAT,e,23.5102,74.9145,351.9646,3.866830,0.1296199,0.44892158,141.8663,05/14.0/2021,2000,g 12.1,4.0
# From MPEC 2020-W26
241P/LINEAR,e,21.1066,305.4833,111.4223,4.915466,0.0904393,0.60991008,353.4173,05/14.0/2021,2000,g 13.5,4.0
# From MPC 81861
242P/Spahr,e,32.4908,180.4211,246.0398,5.482566,0.0767765,0.27809512,257.9428,05/14.0/2021,2000,g  8.0,4.0
# From MPC111774
243P/NEAT,e,7.6405,87.6426,283.5302,3.831114,0.1314366,0.36010187,130.3258,05/14.0/2021,2000,g 12.5,4.0
# From MPEC 2020-W26
244P/Scotti,e,2.2594,353.9906,92.9674,4.894721,0.0910148,0.19877199,309.8169,05/14.0/2021,2000,g  9.0,4.0
# From MPEC 2020-K19
245P/WISE,e,21.1976,316.6470,316.8678,4.044266,0.1211838,0.45722813,144.2512,05/14.0/2021,2000,g 14.0,4.0
# From MPEC 2021-F20
246P/NEAT,e,15.9858,78.7469,176.3131,4.017106,0.1224149,0.28706190,9.8078,05/14.0/2021,2000,g 10.4,4.0
# From MPEC 2021-F20
247P/LINEAR,e,13.6531,54.0088,47.4753,3.969499,0.1246237,0.62422800,111.4713,05/14.0/2021,2000,g 16.5,2.0
# From MPC 75730
248P/Gibbs,e,6.3485,207.7681,209.8699,5.991582,0.0672035,0.63823544,253.3896,05/14.0/2021,2000,g 14.0,4.0
# From MPEC 2021-BE3
249P/LINEAR,e,8.3947,239.1671,65.6272,2.762541,0.2146549,0.82011096,68.3682,05/14.0/2021,2000,g 15.5,4.0
# From MPC110497
250P/Larson,e,13.1805,73.5319,46.1410,3.761185,0.1351192,0.40112307,162.1670,05/14.0/2021,2000,g 14.5,4.0
# From MPC104795
251P/LINEAR,e,23.3949,219.3830,31.2841,3.510725,0.1498334,0.50511875,209.4330,05/14.0/2021,2000,g 16.5,2.0
# From MPC102956
252P/LINEAR,e,10.4092,190.9464,343.3003,3.050342,0.1850041,0.67198946,349.2809,05/14.0/2021,2000,g 17.5,4.0
# From MPEC 2020-FB5
253P/PANSTARRS,e,4.9433,146.8827,230.6368,3.466925,0.1526818,0.41383960,168.2108,05/14.0/2021,2000,g 14.5,4.0
# From MPEC 2021-F20
254P/McNaught,e,32.5727,129.1749,219.5074,4.611895,0.0995142,0.31976955,22.5115,05/14.0/2021,2000,g 11.0,4.0
# From NK 2214
255P/Levy,e,13.4785,275.9584,185.7985,2.943539,0.1951639,0.71314267,266.1363,05/14.0/2021,2000,g  9.0,4.0
# From MPC 84027
256P/LINEAR,e,27.6280,81.3512,124.2639,4.637456,0.0986925,0.41809648,294.1289,05/14.0/2021,2000,g 14.0,2.0
# From MPEC 2021-F20
257P/Catalina,e,20.2233,207.7344,117.6514,3.761855,0.1350831,0.43045838,33.1325,05/14.0/2021,2000,g 14.1,4.0
# From MPEC 2021-J28
258P/PANSTARRS,e,6.7460,126.2484,26.0319,4.399304,0.1068140,0.20868400,35.1328,05/14.0/2021,2000,g 13.0,4.0
# From MPC106349
